NORAD_CAT_ID,OBJECT_NAME,OBJECT_TYPE,EPOCH,MEAN_MOTION,ECCENTRICITY,INCLINATION,RA_OF_ASC_NODE,ARG_OF_PERICENTER,MEAN_ANOMALY,BSTAR,MEAN_MOTION_DOT,MEAN_MOTION_DDOT,TLE_LINE0,TLE_LINE1,TLE_LINE2,SEMIMAJOR_AXIS,PERIOD,APOGEE,PERIGEE,DECAYED
53274.0,STARLINK-4050,PAYLOAD,2022-11-22 20:28:53,15.08842758,0.0001758,53.2139,183.8578,56.5652,303.5508,2.597e-05,1.25e-06,0.0,0 STARLINK-4050,1 53274U 22086AJ  22326.85339194  .00000125  00000-0  25970-4 0  9991,2 53274  53.2139 183.8578 0001758  56.5652 303.5508 15.08842758 19615,6917.871999999999,95.437,540.953,538.521,0.0
53274.0,STARLINK-4050,PAYLOAD,2022-11-23 01:15:03,15.08832073,0.0001734,53.214,182.9659,57.2802,302.8357,-5.802100000000001e-05,-1.211e-05,0.0,0 STARLINK-4050,1 53274U 22086AJ  22327.05212189 -.00001211  00000-0 -58021-4 0  9990,2 53274  53.2140 182.9659 0001734  57.2802 302.8357 15.08832073 19462,6917.905,95.438,540.969,538.57,0.0
53274.0,STARLINK-4050,PAYLOAD,2022-11-23 07:36:35,15.08832945,0.0001703,53.2139,181.7767,57.5411,302.5745,-6.2739e-05,-1.286e-05,0.0,0 STARLINK-4050,1 53274U 22086AJ  22327.31708256 -.00001286  00000-0 -62739-4 0  9997,2 53274  53.2139 181.7767 0001703  57.5411 302.5745 15.08832945 19682,6917.901999999999,95.438,540.945,538.589,0.0
53274.0,STARLINK-4050,PAYLOAD,2022-11-23 18:44:18,15.08832307,0.0001708,53.2144,179.6948,57.1843,302.9314,-1.578e-05,-5.39e-06,0.0,0 STARLINK-4050,1 53274U 22086AJ  22327.78076433 -.00000539  00000-0 -15780-4 0  9997,2 53274  53.2144 179.6948 0001708  57.1843 302.9314 15.08832307 19751,6917.904,95.438,540.95,538.587,0.0
53274.0,STARLINK-4050,PAYLOAD,2022-11-24 07:27:22,15.08836554,0.0001966,53.2152,177.3157,58.2537,301.8646,1.2404e-05,-9.1e-07,0.0,0 STARLINK-4050,1 53274U 22086AJ  22328.31068257 -.00000091  00000-0  12404-4 0  9994,2 53274  53.2152 177.3157 0001966  58.2537 301.8646 15.08836554 19658,6917.891,95.438,541.116,538.396,0.0
53274.0,STARLINK-4050,PAYLOAD,2022-11-24 13:48:55,15.08831561,0.0001937,53.2155,176.12599999999995,60.7698,299.3488,8.4978e-05,1.064e-05,0.0,0 STARLINK-4050,1 53274U 22086AJ  22328.57564230  .00001064  00000-0  84978-4 0  9999,2 53274  53.2155 176.1260 0001937  60.7698 299.3488 15.08831561 19879,6917.906,95.438,541.111,538.431,0.0
53274.0,STARLINK-4050,PAYLOAD,2022-11-25 07:18:09,15.08837401,0.000202,53.2156,172.8556,61.7697,298.3499,0.00010836,1.437e-05,0.0,0 STARLINK-4050,1 53274U 22086AJ  22329.30427992  .00001437  00000-0  10836-3 0  9999,2 53274  53.2156 172.8556 0002020  61.7697 298.3499 15.08837401 19987,6917.888000000001,95.438,541.151,538.356,0.0
53274.0,STARLINK-4050,PAYLOAD,2022-11-25 16:50:28,15.08842883,0.0002031,53.2161,171.0716,61.8395,298.2802,0.00010158,1.329e-05,0.0,0 STARLINK-4050,1 53274U 22086AJ  22329.70171694  .00001329  00000-0  10158-3 0  9995,2 53274  53.2161 171.0716 0002031  61.8395 298.2802 15.08842883 19864,6917.871999999999,95.437,541.1419999999998,538.332,0.0
53274.0,STARLINK-4050,PAYLOAD,2022-11-25 20:01:14,15.08845041,0.0002031,53.2161,170.477,61.5266,298.5931,9.2945e-05,1.192e-05,0.0,0 STARLINK-4050,1 53274U 22086AJ  22329.83419573  .00001192  00000-0  92945-4 0  9993,2 53274  53.2161 170.4770 0002031  61.5266 298.5931 15.08845041 20060,6917.865,95.437,541.135,538.325,0.0
53274.0,STARLINK-4050,PAYLOAD,2022-11-26 13:30:28,15.08846629,0.0002058,53.2158,167.2058,62.6752,297.4449,6.0724e-05,6.78e-06,0.0,0 STARLINK-4050,1 53274U 22086AJ  22330.56283279  .00000678  00000-0  60724-4 0  9995,2 53274  53.2158 167.2058 0002058  62.6752 297.4449 15.08846629 20177,6917.86,95.437,541.149,538.3009999999998,0.0
53274.0,STARLINK-4050,PAYLOAD,2022-11-26 19:52:01,15.08841194,0.0002046,53.2165,166.0164,63.0159,297.1042,5.710199999999999e-07,-2.79e-06,0.0,0 STARLINK-4050,1 53274U 22086AJ  22330.82779743 -.00000279  00000-0  57102-6 0  9996,2 53274  53.2165 166.0164 0002046  63.0159 297.1042 15.08841194 20216,6917.877,95.437,541.1569999999998,538.326,0.0
53274.0,STARLINK-4050,PAYLOAD,2022-11-26 23:02:48,15.08840154,0.0002024,53.2165,165.4217,62.7867,297.3331,-1.6504e-05,-5.51e-06,0.0,0 STARLINK-4050,1 53274U 22086AJ  22330.96027843 -.00000551  00000-0 -16504-4 0  9991,2 53274  53.2165 165.4217 0002024  62.7867 297.3331 15.08840154 20056,6917.88,95.438,541.145,538.345,0.0
53274.0,STARLINK-4050,PAYLOAD,2022-11-27 11:45:52,15.08841974,0.0002033,53.2165,163.0427,63.3338,296.7862,-2.4466e-05,-6.78e-06,0.0,0 STARLINK-4050,1 53274U 22086AJ  22331.49019621 -.00000678  00000-0 -24466-4 0  9991,2 53274  53.2165 163.0427 0002033  63.3338 296.7862 15.08841974 20315,6917.874,95.437,541.146,538.3330000000002,0.0
53274.0,STARLINK-4050,PAYLOAD,2022-11-27 19:42:46,15.08867068,0.0001696999999999,53.2164,161.5557,64.0245,296.0922,0.00018486,2.657e-05,0.0,0 STARLINK-4050,1 53274U 22086AJ  22331.82137197  .00002657  00000-0  18486-3 0  9998,2 53274  53.2164 161.5557 0001697  64.0245 296.0922 15.08867068 20188,6917.7980000000025,95.436,540.837,538.489,0.0
53274.0,STARLINK-4050,PAYLOAD,2022-11-28 11:36:41,15.08823291,0.0001944,53.2164,158.5832,56.7384,303.3794,-6.052100000000001e-05,-1.251e-05,0.0,0 STARLINK-4050,1 53274U 22086AJ  22332.48381069 -.00001251  00000-0 -60521-4 0  9999,2 53274  53.2164 158.5832 0001944  56.7384 303.3794 15.08823291 20287,6917.931,95.439,541.141,538.452,0.0
53274.0,STARLINK-4050,PAYLOAD,2022-11-28 22:44:23,15.08828005,0.0001987,53.2163,156.5003,64.7767,295.3431,-3.8928e-05,-9.07e-06,0.0,0 STARLINK-4050,1 53274U 22086AJ  22332.94749101 -.00000907  00000-0 -38928-4 0  9998,2 53274  53.2163 156.5003 0001987  64.7767 295.3431 15.08828005 20359,6917.917,95.438,541.1569999999998,538.4069999999998,0.0
53274.0,STARLINK-4050,PAYLOAD,2022-11-29 13:02:51,15.08837808,0.0002061,53.2163,153.8239,72.1811,287.9406,-0.0001391,-2.501e-05,0.0,0 STARLINK-4050,1 53274U 22086AJ  22333.54365364 -.00002501  00000-0 -13910-3 0  9995,2 53274  53.2163 153.8239 0002061  72.1811 287.9406 15.08837808 20627,6917.887,95.438,541.178,538.326,0.0
53274.0,STARLINK-4050,PAYLOAD,2022-11-29 19:24:24,15.08834878,0.0002047,53.2163,152.6345,70.5888,289.5325,-5.5216e-05,-1.167e-05,0.0,0 STARLINK-4050,1 53274U 22086AJ  22333.80861350 -.00001167  00000-0 -55216-4 0  9993,2 53274  53.2163 152.6345 0002047  70.5888 289.5325 15.08834878 20668,6917.896,95.438,541.177,538.345,0.0
53274.0,STARLINK-4050,PAYLOAD,2022-11-29 22:35:10,15.08838392,0.0002083,53.2163,152.0398,73.39699999999998,286.725,-8.5272e-05,-1.645e-05,0.0,0 STARLINK-4050,1 53274U 22086AJ  22333.94109266 -.00001645  00000-0 -85272-4 0  9995,2 53274  53.2163 152.0398 0002083  73.3970 286.7250 15.08838392 20507,6917.885,95.438,541.191,538.309,0.0
53274.0,STARLINK-4050,PAYLOAD,2022-11-30 04:56:43,15.08826284,0.0001969,53.2164,150.8504,64.2183,295.9012,8.2233e-05,1.02e-05,0.0,0 STARLINK-4050,1 53274U 22086AJ  22334.20605762  .00001020  00000-0  82233-4 0  9996,2 53274  53.2164 150.8504 0001969  64.2183 295.9012 15.08826284 20549,6917.922,95.438,541.149,538.425,0.0
53274.0,STARLINK-4050,PAYLOAD,2022-11-30 12:53:39,15.08829804,0.0001961,53.2163,149.3634,64.3546,295.7649,6.772399999999999e-05,7.9e-06,0.0,0 STARLINK-4050,1 53274U 22086AJ  22334.53725868  .00000790  00000-0  67724-4 0  9993,2 53274  53.2163 149.3634 0001961  64.3546 295.7649 15.08829804 20771,6917.9119999999975,95.438,541.133,538.42,0.0
53274.0,STARLINK-4050,PAYLOAD,2022-12-01 04:47:32,15.08808935,0.0002145,53.2164,146.3899,66.074,294.0477,-0.0001169,-2.147e-05,0.0,0 STARLINK-4050,1 53274U 22086AJ  22335.19968488 -.00002147  00000-0 -11690-3 0  9993,2 53274  53.2164 146.3899 0002145  66.0740 294.0477 15.08808935 20696,6917.975,95.44,541.3240000000002,538.356,0.0
53274.0,STARLINK-4050,PAYLOAD,2022-12-01 12:44:28,15.08817324,0.0001591,53.2167,144.9031,60.6702,299.4449,-5.9702e-05,-1.237e-05,0.0,0 STARLINK-4050,1 53274U 22086AJ  22335.53088049 -.00001237  00000-0 -59702-4 0  9993,2 53274  53.2167 144.9031 0001591  60.6702 299.4449 15.08817324 20929,6917.95,95.439,540.915,538.714,0.0
53274.0,STARLINK-4050,PAYLOAD,2022-12-01 17:30:37,15.08818567,0.0001688,53.2165,144.0109,61.3057,298.8105,-4.4526e-05,-9.96e-06,0.0,0 STARLINK-4050,1 53274U 22086AJ  22335.72960201 -.00000996  00000-0 -44526-4 0  9992,2 53274  53.2165 144.0109 0001688  61.3057 298.8105 15.08818567 20777,6917.946,95.439,540.979,538.643,0.0
53274.0,STARLINK-4050,PAYLOAD,2022-12-02 10:59:50,15.08838103,0.0001982,53.2168,140.7406,64.1451,295.9745,8.960600000000001e-05,1.138e-05,0.0,0 STARLINK-4050,1 53274U 22086AJ  22336.45822822  .00001138  00000-0  89606-4 0  9994,2 53274  53.2168 140.7406 0001982  64.1451 295.9745 15.08838103 20887,6917.886,95.438,541.122,538.38,0.0
53274.0,STARLINK-4050,PAYLOAD,2022-12-02 20:32:09,15.08842557,0.0001746,53.2165,138.9576,61.3331,298.7836,7.5158e-05,9.08e-06,0.0,0 STARLINK-4050,1 53274U 22086AJ  22336.85566519  .00000908  00000-0  75158-4 0  9997,2 53274  53.2165 138.9576 0001746  61.3331 298.7836 15.08842557 21123,6917.873000000001,95.437,540.945,538.53,0.0
53274.0,STARLINK-4050,PAYLOAD,2022-12-03 10:50:37,15.0884408,0.0001602,53.2162,136.2809,55.5403,304.574,0.0001877,2.701e-05,0.0,0 STARLINK-4050,1 53274U 22086AJ  22337.45182106  .00002701  00000-0  18770-3 0  9999,2 53274  53.2162 136.2809 0001602  55.5403 304.5740 15.08844080 21039,6917.868,95.437,540.841,538.625,0.0
53274.0,STARLINK-4050,PAYLOAD,2022-12-03 17:12:09,15.08846824,0.0001523,53.2164,135.0911,56.4467,303.6670000000001,0.00020508,2.978e-05,0.0,0 STARLINK-4050,1 53274U 22086AJ  22337.71677780  .00002978  00000-0  20508-3 0  9993,2 53274  53.2164 135.0911 0001523  56.4467 303.6670 15.08846824 21258,6917.86,95.437,540.778,538.6709999999998,0.0
53274.0,STARLINK-4050,PAYLOAD,2022-12-04 10:41:23,15.08852845,0.0001453,53.2165,131.8185,63.0001,297.1140000000001,7.9806e-05,9.83e-06,0.0,0 STARLINK-4050,1 53274U 22086AJ  22338.44541211  .00000983  00000-0  79806-4 0  9993,2 53274  53.2165 131.8185 0001453  63.0001 297.1140 15.08852845 21367,6917.840999999999,95.437,540.711,538.701,0.0
